{"type": "FeatureCollection", "features": [ {"type": "Feature", "properties": {"norad_id": 40664, "name": "SKY MEXICO-1", "group": "intelsat", "lat": 0.040878526827043356, "lon": 99.54862413368579, "alt_km": 35796.12801340602, "timestamp": "2025-12-22T05:49:03.150503+00:00", "meta": {"OBJECT_NAME": "SKY MEXICO-1", "OBJECT_ID": "2015-026B", "EPOCH": "2025-12-21T17:33:40.473216", "MEAN_MOTION": 1.00271429, "ECCENTRICITY": 0.000236, "INCLINATION": 0.0159, "RA_OF_ASC_NODE": 354.7383, "ARG_OF_PERICENTER": 292.5578, "MEAN_ANOMALY": 347.9095, "EPHEMERIS_TYPE": 0, "CLASSIFICATION_TYPE": "U", "NORAD_CAT_ID": 40664, "ELEMENT_SET_NO": 999, "REV_AT_EPOCH": 3867, "BSTAR": 0, "MEAN_MOTION_DOT": -2.12e-06, "MEAN_MOTION_DDOT": 0}, "tle": {"line1": "1 40664U 15026B   25355.73171844 -.00000212  00000+0  00000+0 0  9993", "line2": "2 40664   0.0159 354.7383 0002360 292.5578 347.9095  1.00271429 38676"}}, "geometry": {"type": "Point", "coordinates": [99.54862413368579, 0.040878526827043356]}}, {"type": "Feature", "properties": {"norad_id": 40874, "name": "INTELSAT 34 (IS-34)", "group": "intelsat", "lat": 0.0188019407738838, "lon": 122.80048879796986, "alt_km": 35784.341614064164, "timestamp": "2025-12-22T05:49:03.150515+00:00", "meta": {"OBJECT_NAME": "INTELSAT 34 (IS-34)", "OBJECT_ID": "2015-039A", "EPOCH": "2025-12-21T04:31:38.456256", "MEAN_MOTION": 1.00270737, "ECCENTRICITY": 5.67e-05, "INCLINATION": 0.0114, "RA_OF_ASC_NODE": 322.9713, "ARG_OF_PERICENTER": 185.716, "MEAN_ANOMALY": 313.7366, "EPHEMERIS_TYPE": 0, "CLASSIFICATION_TYPE": "U", "NORAD_CAT_ID": 40874, "ELEMENT_SET_NO": 999, "REV_AT_EPOCH": 3784, "BSTAR": 0, "MEAN_MOTION_DOT": -2.62e-06, "MEAN_MOTION_DDOT": 0}, "tle": {"line1": "1 40874U 15039A   25355.18863954 -.00000262  00000+0  00000+0 0  9994", "line2": "2 40874   0.0114 322.9713 0000567 185.7160 313.7366  1.00270737 37842"}}, "geometry": {"type": "Point", "coordinates": [122.80048879796986, 0.0188019407738838]}}, {"type": "Feature", "properties": {"norad_id": 41581, "name": "INTELSAT 31 (IS-31)", "group": "intelsat", "lat": 0.019970311143777817, "lon": 83.23100483686635, "alt_km": 35790.86526895201, "timestamp": "2025-12-22T05:49:03.150543+00:00", "meta": {"OBJECT_NAME": "INTELSAT 31 (IS-31)", "OBJECT_ID": "2016-035A", "EPOCH": "2025-12-21T19:35:26.947968", "MEAN_MOTION": 1.00269865, "ECCENTRICITY": 0.0002135, "INCLINATION": 0.0309, "RA_OF_ASC_NODE": 264.1816, "ARG_OF_PERICENTER": 297.0048, "MEAN_ANOMALY": 88.2558, "EPHEMERIS_TYPE": 0, "CLASSIFICATION_TYPE": "U", "NORAD_CAT_ID": 41581, "ELEMENT_SET_NO": 999, "REV_AT_EPOCH": 3490, "BSTAR": 0, "MEAN_MOTION_DOT": -1.28e-06, "MEAN_MOTION_DDOT": 0}, "tle": {"line1": "1 41581U 16035A   25355.81628412 -.00000128  00000+0  00000+0 0  9996", "line2": "2 41581   0.0309 264.1816 0002135 297.0048  88.2558  1.00269865 34901"}}, "geometry": {"type": "Point", "coordinates": [83.23100483686635, 0.019970311143777817]}}, {"type": "Feature", "properties": {"norad_id": 41747, "name": "INTELSAT 36 (IS-36)", "group": "intelsat", "lat": -0.032915670642362234, "lon": -113.21376190535385, "alt_km": 35785.449004548704, "timestamp": "2025-12-22T05:49:03.150557+00:00", "meta": {"OBJECT_NAME": "INTELSAT 36 (IS-36)", "OBJECT_ID": "2016-053A", "EPOCH": "2025-12-21T20:20:00.525120", "MEAN_MOTION": 1.00271923, "ECCENTRICITY": 0.0001249, "INCLINATION": 0.0102, "RA_OF_ASC_NODE": 0.5102, "ARG_OF_PERICENTER": 330.1115, "MEAN_ANOMALY": 133.5356, "EPHEMERIS_TYPE": 0, "CLASSIFICATION_TYPE": "U", "NORAD_CAT_ID": 41747, "ELEMENT_SET_NO": 999, "REV_AT_EPOCH": 3417, "BSTAR": 0, "MEAN_MOTION_DOT": -2e-08, "MEAN_MOTION_DDOT": 0}, "tle": {"line1": "1 41747U 16053A   25355.84722830 -.00000002  00000+0  00000+0 0  9993", "line2": "2 41747   0.0102   0.5102 0001249 330.1115 133.5356  1.00271923 34172"}}, "geometry": {"type": "Point", "coordinates": [-113.21376190535385, -0.032915670642362234]}}, {"type": "Feature", "properties": {"norad_id": 41945, "name": "INTELSAT 32E (IS-32E)", "group": "intelsat", "lat": 0.04056028164908743, "lon": 135.1206597604362, "alt_km": 35788.302475450815, "timestamp": "2025-12-22T05:49:03.150568+00:00", "meta": {"OBJECT_NAME": "INTELSAT 32E (IS-32E)", "OBJECT_ID": "2017-007B", "EPOCH": "2025-12-21T08:28:38.563104", "MEAN_MOTION": 1.00267685, "ECCENTRICITY": 7.959e-05, "INCLINATION": 0.0278, "RA_OF_ASC_NODE": 70.3074, "ARG_OF_PERICENTER": 317.4297, "MEAN_ANOMALY": 146.417, "EPHEMERIS_TYPE": 0, "CLASSIFICATION_TYPE": "U", "NORAD_CAT_ID": 41945, "ELEMENT_SET_NO": 999, "REV_AT_EPOCH": 3244, "BSTAR": 0, "MEAN_MOTION_DOT": -2.46e-06, "MEAN_MOTION_DDOT": 0}, "tle": {"line1": "1 41945U 17007B   25355.35322411 -.00000246  00000+0  00000+0 0  9990", "line2": "2 41945   0.0278  70.3074 0000795 317.4297 146.4170  1.00267685 32448"}}, "geometry": {"type": "Point", "coordinates": [135.1206597604362, 0.04056028164908743]}}, {"type": "Feature", "properties": {"norad_id": 42818, "name": "INTELSAT 35E (IS-35E)", "group": "intelsat", "lat": 0.033840269563921395, "lon": 143.78674220116045, "alt_km": 35792.64294847219, "timestamp": "2025-12-22T05:49:03.150580+00:00", "meta": {"OBJECT_NAME": "INTELSAT 35E (IS-35E)", "OBJECT_ID": "2017-041A", "EPOCH": "2025-12-21T18:10:12.611424", "MEAN_MOTION": 1.00268445, "ECCENTRICITY": 0.0001873, "INCLINATION": 0.0224, "RA_OF_ASC_NODE": 9.7462, "ARG_OF_PERICENTER": 268.831, "MEAN_ANOMALY": 50.0494, "EPHEMERIS_TYPE": 0, "CLASSIFICATION_TYPE": "U", "NORAD_CAT_ID": 42818, "ELEMENT_SET_NO": 999, "REV_AT_EPOCH": 3103, "BSTAR": 0, "MEAN_MOTION_DOT": 0, "MEAN_MOTION_DDOT": 0}, "tle": {"line1": "1 42818U 17041A   25355.75709041  .00000000  00000+0  00000+0 0  9997", "line2": "2 42818   0.0224   9.7462 0001873 268.8310  50.0494  1.00268445 31037"}}, "geometry": {"type": "Point", "coordinates": [143.78674220116045, 0.033840269563921395]}}, {"type": "Feature", "properties": {"norad_id": 42950, "name": "INTELSAT 37E (IS-37E)", "group": "intelsat", "lat": 0.02535099539388978, "lon": 160.27872233238128, "alt_km": 35788.023684194326, "timestamp": "2025-12-22T05:49:03.150592+00:00", "meta": {"OBJECT_NAME": "INTELSAT 37E (IS-37E)", "OBJECT_ID": "2017-059A", "EPOCH": "2025-12-21T07:58:36.876864", "MEAN_MOTION": 1.00273331, "ECCENTRICITY": 0.00028416, "INCLINATION": 0.0189, "RA_OF_ASC_NODE": 20.7753, "ARG_OF_PERICENTER": 240.6513, "MEAN_ANOMALY": 290.3802, "EPHEMERIS_TYPE": 0, "CLASSIFICATION_TYPE": "U", "NORAD_CAT_ID": 42950, "ELEMENT_SET_NO": 999, "REV_AT_EPOCH": 3028, "BSTAR": 0, "MEAN_MOTION_DOT": -1.18e-06, "MEAN_MOTION_DDOT": 0}, "tle": {"line1": "1 42950U 17059A   25355.33237126 -.00000118  00000+0  00000+0 0  9998", "line2": "2 42950   0.0189  20.7753 0002841 240.6513 290.3802  1.00273331 30287"}}, "geometry": {"type": "Point", "coordinates": [160.27872233238128, 0.02535099539388978]}}, {"type": "Feature", "properties": {"norad_id": 43632, "name": "AZERSPACE 2 (IS-38)", "group": "intelsat", "lat": -0.033673569115269995, "lon": -136.59085831751207, "alt_km": 35782.976283114345, "timestamp": "2025-12-22T05:49:03.150604+00:00", "meta": {"OBJECT_NAME": "AZERSPACE 2 (IS-38)", "OBJECT_ID": "2018-074A", "EPOCH": "2025-12-21T18:32:21.878016", "MEAN_MOTION": 1.00269948, "ECCENTRICITY": 0.0001157, "INCLINATION": 0.0186, "RA_OF_ASC_NODE": 344.3272, "ARG_OF_PERICENTER": 282.3188, "MEAN_ANOMALY": 147.1477, "EPHEMERIS_TYPE": 0, "CLASSIFICATION_TYPE": "U", "NORAD_CAT_ID": 43632, "ELEMENT_SET_NO": 999, "REV_AT_EPOCH": 2666, "BSTAR": 0, "MEAN_MOTION_DOT": 1.59e-06, "MEAN_MOTION_DDOT": 0}, "tle": {"line1": "1 43632U 18074A   25355.77247544  .00000159  00000+0  00000+0 0  9991", "line2": "2 43632   0.0186 344.3272 0001157 282.3188 147.1477  1.00269948 26666"}}, "geometry": {"type": "Point", "coordinates": [-136.59085831751207, -0.033673569115269995]}}, {"type": "Feature", "properties": {"norad_id": 43633, "name": "HORIZONS-3E", "group": "intelsat", "lat": 0.005882218759740953, "lon": -12.705366845648202, "alt_km": 35783.94321984158, "timestamp": "2025-12-22T05:49:03.150616+00:00", "meta": {"OBJECT_NAME": "HORIZONS-3E", "OBJECT_ID": "2018-074B", "EPOCH": "2025-12-21T19:08:14.553024", "MEAN_MOTION": 1.0027168, "ECCENTRICITY": 6.49e-05, "INCLINATION": 0.0094, "RA_OF_ASC_NODE": 220.9416, "ARG_OF_PERICENTER": 88.5236, "MEAN_ANOMALY": 237.1914, "EPHEMERIS_TYPE": 0, "CLASSIFICATION_TYPE": "U", "NORAD_CAT_ID": 43633, "ELEMENT_SET_NO": 999, "REV_AT_EPOCH": 2656, "BSTAR": 0, "MEAN_MOTION_DOT": 0, "MEAN_MOTION_DDOT": 0}, "tle": {"line1": "1 43633U 18074B   25355.79739066  .00000000  00000+0  00000+0 0  9994", "line2": "2 43633   0.0094 220.9416 0000649  88.5236 237.1914  1.00271680 26560"}}, "geometry": {"type": "Point", "coordinates": [-12.705366845648202, 0.005882218759740953]}}, {"type": "Feature", "properties": {"norad_id": 44333, "name": "AT&T T-16", "group": "intelsat", "lat": 0.02298778112564934, "lon": 77.43335421846727, "alt_km": 35785.20345595502, "timestamp": "2025-12-22T05:49:03.150628+00:00", "meta": {"OBJECT_NAME": "AT&T T-16", "OBJECT_ID": "2019-034A", "EPOCH": "2025-12-21T16:08:30.836832", "MEAN_MOTION": 1.00269018, "ECCENTRICITY": 0.0001273, "INCLINATION": 0.0178, "RA_OF_ASC_NODE": 58.6354, "ARG_OF_PERICENTER": 90.9661, "MEAN_ANOMALY": 82.1626, "EPHEMERIS_TYPE": 0, "CLASSIFICATION_TYPE": "U", "NORAD_CAT_ID": 44333, "ELEMENT_SET_NO": 999, "REV_AT_EPOCH": 2385, "BSTAR": 0, "MEAN_MOTION_DOT": -9.3e-07, "MEAN_MOTION_DDOT": 0}, "tle": {"line1": "1 44333U 19034A   25355.67257913 -.00000093  00000+0  00000+0 0  9995", "line2": "2 44333   0.0178  58.6354 0001273  90.9661  82.1626  1.00269018 23850"}}, "geometry": {"type": "Point", "coordinates": [77.43335421846727, 0.02298778112564934]}}]}